OBJECT_NAME,OBJECT_ID,EPOCH,MEAN_MOTION,ECCENTRICITY,INCLINATION,RA_OF_ASC_NODE,ARG_OF_PERICENTER,MEAN_ANOMALY,EPHEMERIS_TYPE,CLASSIFICATION_TYPE,NORAD_CAT_ID,ELEMENT_SET_NO,REV_AT_EPOCH,BSTAR,MEAN_MOTION_DOT,MEAN_MOTION_DDOT
STARLINK-31114,2024-011B,2026-07-07T09:07:51.054528,15.30180932,.00011906,53.1586,175.7499,78.7348,281.3787,0,U,58766,999,13862,.21281555E-4,.271E-5,0
STARLINK-31140,2024-011C,2026-07-08T08:05:19.011840,15.34375287,.00010762,53.1595,172.4535,97.1829,262.9296,0,U,58767,999,13875,.10669103E-3,.3227E-4,0
STARLINK-31146,2024-011E,2026-07-08T08:14:23.619552,15.34379085,.00010718,53.1597,172.4904,126.6794,233.4307,0,U,58769,999,13875,.12701365E-3,.3915E-4,0
STARLINK-31143,2024-011F,2026-07-06T06:22:00.381216,15.34369453,.00011655,53.1591,182.2760,96.1301,263.9834,0,U,58770,999,13843,-.14335289E-3,-.5211E-4,0
STARLINK-31135,2024-011G,2026-07-08T08:23:27.680352,15.30179360,.000082,53.1579,171.1317,94.3908,265.7187,0,U,58771,999,13877,.850596E-4,.216E-4,0
STARLINK-31136,2024-011H,2026-07-08T07:56:13.410528,15.34381808,.00011217,53.1603,172.4095,70.7784,289.3340,0,U,58772,999,13874,.16510326E-3,.5203E-4,0
STARLINK-31073,2024-011J,2026-07-08T08:30:16.263360,15.30196692,.00011357,53.1592,173.2669,84.7589,275.3541,0,U,58773,999,13874,.78308427E-4,.1961E-4,0
STARLINK-31122,2024-011K,2026-07-08T08:39:24.585408,15.30186957,.00014965,53.1598,173.3015,70.1800,289.9362,0,U,58774,999,13874,.10870309E-3,.286E-4,0
STARLINK-31123,2024-011L,2026-07-08T08:47:35.625984,15.34395450,.00012982,53.1580,171.9230,87.9351,272.1800,0,U,58775,999,1201,.15460971E-3,.485E-4,0
STARLINK-31117,2024-011M,2026-07-08T08:50:02.728896,15.30195417,.00012298,53.1573,173.3474,88.4020,271.7121,0,U,58776,999,13874,.18977673E-3,.5265E-4,0
STARLINK-31132,2024-011N,2026-07-08T02:09:37.896480,15.31701287,.00018107,53.1617,83.5274,120.3617,239.7564,0,U,58777,999,14000,.3034465E-5,-.271E-5,0
STARLINK-31120,2024-011P,2026-07-07T08:44:25.431072,15.34379207,.00010261,53.1585,177.0367,89.3826,270.7294,0,U,58778,999,13860,-.431266E-5,-.522E-5,0
STARLINK-31142,2024-011Q,2026-07-08T08:47:00.610656,15.30186397,.00007526,53.1594,173.3315,98.7435,261.3651,0,U,58779,999,13874,.13444963E-3,.3623E-4,0
STARLINK-31099,2024-011S,2026-07-08T08:42:27.112320,15.30181466,.00010928,53.1591,173.3116,96.0372,264.0753,0,U,58781,999,13874,.10822785E-3,.2846E-4,0
STARLINK-31047,2024-011U,2026-07-08T14:00:03.000384,15.34424044,.00010749,53.1578,154.9058,85.6555,353.7166,0,U,58783,999,562,-.65493042E-3,-.22455E-3,0
STARLINK-31039,2024-011V,2026-07-08T08:33:18.591552,15.30174931,.00012739,53.1590,173.2681,111.9166,248.1970,0,U,58784,999,13874,.32731569E-4,.61E-5,0
STARLINK-31034,2024-011W,2026-07-08T01:55:53.097024,15.34397601,.00014678,53.1587,69.9441,82.5991,277.5178,0,U,58785,999,14019,.1172889E-3,.3588E-4,0
STARLINK-31024,2024-011X,2026-07-08T08:40:10.490592,15.30186971,.00008697,53.1587,171.1944,47.8703,312.2372,0,U,58786,999,13877,.20084343E-3,.5592E-4,0
STARLINK-31189,2024-012A,2026-07-08T09:58:10.398432,15.27563002,.00014454,43.0025,203.0912,281.6307,78.4383,0,U,58787,999,13970,.12131767E-3,.3076E-4,0
STARLINK-31185,2024-012B,2026-07-08T09:45:24.724224,15.27558392,.00012867,43.0001,203.8833,277.0025,83.0680,0,U,58788,999,13969,.54912587E-4,.1248E-4,0
STARLINK-31166,2024-012C,2026-07-08T04:05:36.042720,15.27480387,.00014631,43.0053,204.6935,303.9001,56.1711,0,U,58789,999,13966,.85573762E-3,.23289E-3,0
STARLINK-31187,2024-012D,2026-07-08T09:43:31.217952,15.27605909,.00011241,42.9995,203.8726,274.5412,85.5311,0,U,58790,999,13969,.22897979E-3,.6049E-4,0
STARLINK-31162,2024-012E,2026-07-08T04:03:44.834688,15.27565854,.00010347,43.0017,204.6906,264.1878,95.8856,0,U,58791,999,13966,.11953021E-3,.3027E-4,0
STARLINK-31184,2024-012G,2026-07-08T11:47:06.699264,15.27569610,.00015394,43.0036,202.7995,279.0431,81.0246,0,U,58793,999,13971,.98364793E-4,.2445E-4,0
STARLINK-31192,2024-012H,2026-07-08T12:48:11.496096,15.27564604,.0001612,43.0012,203.1074,287.5082,72.5594,0,U,58794,999,13971,.11512028E-3,.2905E-4,0
STARLINK-31161,2024-012J,2026-07-08T04:00:02.411712,15.27559208,.00018703,43.0057,204.6674,289.7333,70.3317,0,U,58795,999,13966,.1854109E-3,.484E-4,0
STARLINK-31195,2024-012K,2026-07-08T09:50:59.160480,15.27568422,.00013677,43.0001,203.9097,296.3629,63.7082,0,U,58796,999,13969,.18605803E-4,.25E-5,0
STARLINK-31193,2024-012L,2026-07-08T08:55:28.410240,15.27563214,.00016383,43.0035,203.6244,284.1373,75.9297,0,U,58797,999,13969,.1183082E-3,.2993E-4,0
STARLINK-31168,2024-012M,2026-07-08T12:09:20.632320,15.27567781,.00012137,43.0016,202.9085,266.0390,94.0323,0,U,58798,999,13971,.15491054E-3,.4001E-4,0
STARLINK-31191,2024-012P,2026-07-08T11:41:34.105920,15.27559032,.00012851,43.0022,202.7673,276.9833,83.0873,0,U,58800,999,13971,.58345517E-4,.1343E-4,0
